[{"OBJECT_NAME":"HELIOS 1B","OBJECT_ID":"1999-064A","EPOCH":"2026-04-09T04:20:26.957184","MEAN_MOTION":14.87824366,"ECCENTRICITY":0.0001203,"INCLINATION":98.1658,"RA_OF_ASC_NODE":2.3165,"ARG_OF_PERICENTER":40.5304,"MEAN_ANOMALY":319.6001,"EPHEMERIS_TYPE":0,"CLASSIFICATION_TYPE":"U","NORAD_CAT_ID":25977,"ELEMENT_SET_NO":999,"REV_AT_EPOCH":68979,"BSTAR":0.00014589891,"MEAN_MOTION_DOT":1.275e-5,"MEAN_MOTION_DDOT":0},{"OBJECT_NAME":"TERRA","OBJECT_ID":"1999-068A","EPOCH":"2026-04-09T06:10:55.648128","MEAN_MOTION":14.61049445,"ECCENTRICITY":0.0003669,"INCLINATION":97.9531,"RA_OF_ASC_NODE":151.5147,"ARG_OF_PERICENTER":89.2902,"MEAN_ANOMALY":319.8159,"EPHEMERIS_TYPE":0,"CLASSIFICATION_TYPE":"U","NORAD_CAT_ID":25994,"ELEMENT_SET_NO":999,"REV_AT_EPOCH":39954,"BSTAR":9.6730928e-5,"MEAN_MOTION_DOT":4.31e-6,"MEAN_MOTION_DDOT":0},{"OBJECT_NAME":"SL-16 R/B","OBJECT_ID":"2000-006B","EPOCH":"2026-04-09T06:01:44.922432","MEAN_MOTION":14.15831268,"ECCENTRICITY":0.00149488,"INCLINATION":71.0046,"RA_OF_ASC_NODE":33.5736,"ARG_OF_PERICENTER":141.6324,"MEAN_ANOMALY":218.5865,"EPHEMERIS_TYPE":0,"CLASSIFICATION_TYPE":"U","NORAD_CAT_ID":26070,"ELEMENT_SET_NO":999,"REV_AT_EPOCH":35288,"BSTAR":-4.5447218e-5,"MEAN_MOTION_DOT":-1.37e-6,"MEAN_MOTION_DDOT":0},{"OBJECT_NAME":"TITAN 4B R/B","OBJECT_ID":"2000-047B","EPOCH":"2026-04-09T02:32:43.298016","MEAN_MOTION":15.09841278,"ECCENTRICITY":0.00409171,"INCLINATION":67.9893,"RA_OF_ASC_NODE":314.9648,"ARG_OF_PERICENTER":0.163,"MEAN_ANOMALY":359.9525,"EPHEMERIS_TYPE":0,"CLASSIFICATION_TYPE":"U","NORAD_CAT_ID":26474,"ELEMENT_SET_NO":999,"REV_AT_EPOCH":39750,"BSTAR":0.00018210824,"MEAN_MOTION_DOT":2.872e-5,"MEAN_MOTION_DDOT":0},{"OBJECT_NAME":"ENVISAT","OBJECT_ID":"2002-009A","EPOCH":"2026-04-09T07:05:16.057536","MEAN_MOTION":14.3904832,"ECCENTRICITY":0.00011615,"INCLINATION":98.3776,"RA_OF_ASC_NODE":52.1737,"ARG_OF_PERICENTER":82.8754,"MEAN_ANOMALY":82.6995,"EPHEMERIS_TYPE":0,"CLASSIFICATION_TYPE":"U","NORAD_CAT_ID":27386,"ELEMENT_SET_NO":999,"REV_AT_EPOCH":26357,"BSTAR":5.5253299e-5,"MEAN_MOTION_DOT":1.28e-6,"MEAN_MOTION_DDOT":0},{"OBJECT_NAME":"IDEFIX & ARIANE 42P R/B","OBJECT_ID":"2002-021B","EPOCH":"2026-04-09T06:14:59.337600","MEAN_MOTION":14.31048443,"ECCENTRICITY":0.00129611,"INCLINATION":98.5901,"RA_OF_ASC_NODE":37.508,"ARG_OF_PERICENTER":96.5048,"MEAN_ANOMALY":263.7611,"EPHEMERIS_TYPE":0,"CLASSIFICATION_TYPE":"U","NORAD_CAT_ID":27422,"ELEMENT_SET_NO":999,"REV_AT_EPOCH":24839,"BSTAR":0.0001254824,"MEAN_MOTION_DOT":2.87e-6,"MEAN_MOTION_DDOT":0},{"OBJECT_NAME":"AQUA","OBJECT_ID":"2002-022A","EPOCH":"2026-04-09T06:50:40.707168","MEAN_MOTION":14.62051507,"ECCENTRICITY":0.00015911,"INCLINATION":98.4224,"RA_OF_ASC_NODE":67.2197,"ARG_OF_PERICENTER":112.1539,"MEAN_ANOMALY":352.5455,"EPHEMERIS_TYPE":0,"CLASSIFICATION_TYPE":"U","NORAD_CAT_ID":27424,"ELEMENT_SET_NO":999,"REV_AT_EPOCH":27320,"BSTAR":0.00020266404,"MEAN_MOTION_DOT":9.68e-6,"MEAN_MOTION_DDOT":0},{"OBJECT_NAME":"CZ-4B R/B","OBJECT_ID":"2002-024C","EPOCH":"2026-04-09T06:56:25.472544","MEAN_MOTION":14.14553373,"ECCENTRICITY":0.00491386,"INCLINATION":98.8776,"RA_OF_ASC_NODE":152.5324,"ARG_OF_PERICENTER":296.6356,"MEAN_ANOMALY":192.779,"EPHEMERIS_TYPE":0,"CLASSIFICATION_TYPE":"U","NORAD_CAT_ID":27432,"ELEMENT_SET_NO":999,"REV_AT_EPOCH":23356,"BSTAR":3.8321842e-5,"MEAN_MOTION_DOT":2.9e-7,"MEAN_MOTION_DDOT":0},{"OBJECT_NAME":"MIDORI II (ADEOS-II)","OBJECT_ID":"2002-056A","EPOCH":"2026-04-09T02:46:20.031168","MEAN_MOTION":14.29309722,"ECCENTRICITY":1.561e-5,"INCLINATION":98.7819,"RA_OF_ASC_NODE":57.8137,"ARG_OF_PERICENTER":37.8843,"MEAN_ANOMALY":322.235,"EPHEMERIS_TYPE":0,"CLASSIFICATION_TYPE":"U","NORAD_CAT_ID":27597,"ELEMENT_SET_NO":999,"REV_AT_EPOCH":21464,"BSTAR":0.00012930199,"MEAN_MOTION_DOT":2.84e-6,"MEAN_MOTION_DDOT":0},{"OBJECT_NAME":"H-2A R/B","OBJECT_ID":"2002-056E","EPOCH":"2026-04-09T02:59:06.527040","MEAN_MOTION":14.33783549,"ECCENTRICITY":0.00713902,"INCLINATION":98.3253,"RA_OF_ASC_NODE":58.3413,"ARG_OF_PERICENTER":71.2243,"MEAN_ANOMALY":299.2256,"EPHEMERIS_TYPE":0,"CLASSIFICATION_TYPE":"U","NORAD_CAT_ID":27601,"ELEMENT_SET_NO":999,"REV_AT_EPOCH":21847,"BSTAR":0.00011903227,"MEAN_MOTION_DOT":2.99e-6,"MEAN_MOTION_DDOT":0},{"OBJECT_NAME":"CZ-4B R/B","OBJECT_ID":"2003-049C","EPOCH":"2026-04-08T23:38:21.594624","MEAN_MOTION":14.5504866,"ECCENTRICITY":0.00488961,"INCLINATION":98.6899,"RA_OF_ASC_NODE":95.0843,"ARG_OF_PERICENTER":138.2423,"MEAN_ANOMALY":222.2521,"EPHEMERIS_TYPE":0,"CLASSIFICATION_TYPE":"U","NORAD_CAT_ID":28059,"ELEMENT_SET_NO":999,"REV_AT_EPOCH":19100,"BSTAR":8.0756749e-5,"MEAN_MOTION_DOT":3.02e-6,"MEAN_MOTION_DDOT":0},{"OBJECT_NAME":"CZ-2C R/B","OBJECT_ID":"2004-012C","EPOCH":"2026-04-09T03:28:38.899488","MEAN_MOTION":15.6848261,"ECCENTRICITY":0.00138667,"INCLINATION":97.7153,"RA_OF_ASC_NODE":167.4019,"ARG_OF_PERICENTER":192.3745,"MEAN_ANOMALY":167.7177,"EPHEMERIS_TYPE":0,"CLASSIFICATION_TYPE":"U","NORAD_CAT_ID":28222,"ELEMENT_SET_NO":999,"REV_AT_EPOCH":20904,"BSTAR":0.00040868885,"MEAN_MOTION_DOT":0.0004637,"MEAN_MOTION_DDOT":0},{"OBJECT_NAME":"SL-16 R/B","OBJECT_ID":"2004-021B","EPOCH":"2026-04-09T06:54:18.175968","MEAN_MOTION":14.14603506,"ECCENTRICITY":0.00058124,"INCLINATION":71.0013,"RA_OF_ASC_NODE":168.283,"ARG_OF_PERICENTER":330.4395,"MEAN_ANOMALY":29.6398,"EPHEMERIS_TYPE":0,"CLASSIFICATION_TYPE":"U","NORAD_CAT_ID":28353,"ELEMENT_SET_NO":999,"REV_AT_EPOCH":12716,"BSTAR":0.00015011909,"MEAN_MOTION_DOT":2.41e-6,"MEAN_MOTION_DDOT":0},{"OBJECT_NAME":"CZ-4B R/B","OBJECT_ID":"2004-035C","EPOCH":"2026-04-09T01:44:20.922432","MEAN_MOTION":15.29623095,"ECCENTRICITY":0.00306603,"INCLINATION":97.3448,"RA_OF_ASC_NODE":132.9538,"ARG_OF_PERICENTER":218.0469,"MEAN_ANOMALY":141.8607,"EPHEMERIS_TYPE":0,"CLASSIFICATION_TYPE":"U","NORAD_CAT_ID":28415,"ELEMENT_SET_NO":999,"REV_AT_EPOCH":18455,"BSTAR":0.00020119206,"MEAN_MOTION_DOT":5.779e-5,"MEAN_MOTION_DDOT":0},{"OBJECT_NAME":"CZ-2C R/B","OBJECT_ID":"2004-046B","EPOCH":"2026-04-09T06:24:57.234240","MEAN_MOTION":14.2700506,"ECCENTRICITY":0.01405196,"INCLINATION":98.1973,"RA_OF_ASC_NODE":12.3457,"ARG_OF_PERICENTER":64.6608,"MEAN_ANOMALY":296.9051,"EPHEMERIS_TYPE":0,"CLASSIFICATION_TYPE":"U","NORAD_CAT_ID":28480,"ELEMENT_SET_NO":999,"REV_AT_EPOCH":11286,"BSTAR":8.2476725e-5,"MEAN_MOTION_DOT":1.83e-6,"MEAN_MOTION_DDOT":0},{"OBJECT_NAME":"ARIANE 5 R/B","OBJECT_ID":"2004-049H","EPOCH":"2026-04-09T00:21:59.720256","MEAN_MOTION":14.85328408,"ECCENTRICITY":0.00828502,"INCLINATION":98.2672,"RA_OF_ASC_NODE":268.6172,"ARG_OF_PERICENTER":252.5485,"MEAN_ANOMALY":106.6659,"EPHEMERIS_TYPE":0,"CLASSIFICATION_TYPE":"U","NORAD_CAT_ID":28499,"ELEMENT_SET_NO":999,"REV_AT_EPOCH":15029,"BSTAR":0.00010979163,"MEAN_MOTION_DOT":9.37e-6,"MEAN_MOTION_DDOT":0},{"OBJECT_NAME":"CZ-2D R/B","OBJECT_ID":"2005-024B","EPOCH":"2026-04-09T00:27:57.630528","MEAN_MOTION":15.6313294,"ECCENTRICITY":0.00021182,"INCLINATION":97.3566,"RA_OF_ASC_NODE":115.3395,"ARG_OF_PERICENTER":240.8676,"MEAN_ANOMALY":119.2371,"EPHEMERIS_TYPE":0,"CLASSIFICATION_TYPE":"U","NORAD_CAT_ID":28738,"ELEMENT_SET_NO":999,"REV_AT_EPOCH":14451,"BSTAR":0.00046073529,"MEAN_MOTION_DOT":0.00042012,"MEAN_MOTION_DDOT":0}]
