HELIOS 1B               
1 25977U 99064A   26099.18086756  .00001275  00000+0  14590-3 0  9991
2 25977  98.1658   2.3165 0001203  40.5304 319.6001 14.87824366689796
TERRA                   
1 25994U 99068A   26099.25758852  .00000431  00000+0  96731-4 0  9996
2 25994  97.9531 151.5147 0003669  89.2902 319.8159 14.61049445399547
SL-16 R/B               
1 26070U 00006B   26099.25121438 -.00000137  00000+0 -45447-4 0  9993
2 26070  71.0046  33.5736 0014948 141.6324 218.5865 14.15831268352889
TITAN 4B R/B            
1 26474U 00047B   26099.10605669  .00002872  00000+0  18211-3 0  9997
2 26474  67.9893 314.9648 0040917   0.1630 359.9525 15.09841278397500
ENVISAT                 
1 27386U 02009A   26099.29532474  .00000128  00000+0  55253-4 0  9993
2 27386  98.3776  52.1737 0001161  82.8754  82.6995 14.39048320263572
IDEFIX & ARIANE 42P R/B 
1 27422U 02021B   26099.26040900  .00000287  00000+0  12548-3 0  9998
2 27422  98.5901  37.5080 0012961  96.5048 263.7611 14.31048443248399
AQUA                    
1 27424U 02022A   26099.28519337  .00000968  00000+0  20266-3 0  9990
2 27424  98.4224  67.2197 0001591 112.1539 352.5455 14.62051507273204
CZ-4B R/B               
1 27432U 02024C   26099.28918371  .00000029  00000+0  38322-4 0  9993
2 27432  98.8776 152.5324 0049138 296.6356 192.7790 14.14553373233569
MIDORI II (ADEOS-II)    
1 27597U 02056A   26099.11550962  .00000284  00000+0  12930-3 0  9999
2 27597  98.7819  57.8137 0000156  37.8843 322.2350 14.29309722214643
H-2A R/B                
1 27601U 02056E   26099.12438110  .00000299  00000+0  11903-3 0  9991
2 27601  98.3253  58.3413 0071390  71.2243 299.2256 14.33783549218475
CZ-4B R/B               
1 28059U 03049C   26098.98497216  .00000302  00000+0  80757-4 0  9996
2 28059  98.6899  95.0843 0048896 138.2423 222.2521 14.55048660191008
CZ-2C R/B               
1 28222U 04012C   26099.14489467  .00046370  00000+0  40869-3 0  9991
2 28222  97.7153 167.4019 0013866 192.3745 167.7177 15.68482610209045
SL-16 R/B               
1 28353U 04021B   26099.28771037  .00000241  00000+0  15012-3 0  9997
2 28353  71.0013 168.2830 0005812 330.4395  29.6398 14.14603506127160
CZ-4B R/B               
1 28415U 04035C   26099.07246438  .00005779  00000+0  20119-3 0  9995
2 28415  97.3448 132.9538 0030660 218.0469 141.8607 15.29623095184555
CZ-2C R/B               
1 28480U 04046B   26099.26732910  .00000183  00000+0  82477-4 0  9995
2 28480  98.1973  12.3457 0140519  64.6608 296.9051 14.27005060112868
ARIANE 5 R/B            
1 28499U 04049H   26099.01527454  .00000937  00000+0  10979-3 0  9990
2 28499  98.2672 268.6172 0082850 252.5485 106.6659 14.85328408150297
CZ-2D R/B               
1 28738U 05024B   26099.01941702  .00042012  00000+0  46074-3 0  9991
2 28738  97.3566 115.3395 0002118 240.8676 119.2371 15.63132940144511
